start=new Date('2022-11-07T00:00:00.000Z').valueOf();
sats=[{"PERIAPSIS":"481.816","ARG_OF_PERICENTER":"69.9305","CLASSIFICATION_TYPE":"U","MEAN_ELEMENT_THEORY":"SGP4","DECAY_DATE":null,"MEAN_MOTION_DOT":"-0.01187491","EPHEMERIS_TYPE":"0","INCLINATION":"53.2169","SITE":"AFETR","LAUNCH_DATE":"2022-08-19","RA_OF_ASC_NODE":"126.9298","TLE_LINE2":"2 53546  53.2169 126.9298 0001450  69.9305 180.6744 15.27660334  1301","APOAPSIS":"483.805","TIME_SYSTEM":"UTC","RCS_SIZE":"LARGE","PERIOD":"94.262","EPOCH":"2022-11-06T14:00:01.000224","OBJECT_TYPE":"PAYLOAD","NORAD_CAT_ID":"53546","ECCENTRICITY":"0.00014500","ELEMENT_SET_NO":"999","COUNTRY_CODE":"US","MEAN_ANOMALY":"180.6744","OBJECT_NAME":"STARLINK-4477","TLE_LINE1":"1 53546U 22101V   22310.58334491 -.01187491  00000-0 -47067-1 0  9992","FILE":"3647066","REF_FRAME":"TEME","CENTER_NAME":"EARTH","OBJECT_ID":"2022-101V","REV_AT_EPOCH":"130","BSTAR":"-0.04706700000000","MEAN_MOTION_DDOT":"0.0000000000000","SEMIMAJOR_AXIS":"6860.946","GP_ID":"217059095","MEAN_MOTION":"15.27660334"},{"REF_FRAME":"TEME","TLE_LINE1":"1 53547U 22101W   22310.80859440 -.00001132  00000-0 -53072-4 0  9996","FILE":"3647162","OBJECT_NAME":"STARLINK-4474","MEAN_ANOMALY":"276.8005","COUNTRY_CODE":"US","GP_ID":"217062185","MEAN_MOTION":"15.08824819","MEAN_MOTION_DDOT":"0.0000000000000","SEMIMAJOR_AXIS":"6917.927","CENTER_NAME":"EARTH","OBJECT_ID":"2022-101W","REV_AT_EPOCH":"1229","BSTAR":"-0.00005307200000","EPHEMERIS_TYPE":"0","INCLINATION":"53.2146","SITE":"AFETR","DECAY_DATE":null,"MEAN_MOTION_DOT":"-0.00001132","MEAN_ELEMENT_THEORY":"SGP4","PERIAPSIS":"538.834","ARG_OF_PERICENTER":"83.3144","CLASSIFICATION_TYPE":"U","OBJECT_TYPE":"PAYLOAD","ECCENTRICITY":"0.00013850","ELEMENT_SET_NO":"999","NORAD_CAT_ID":"53547","RCS_SIZE":"LARGE","PERIOD":"95.439","EPOCH":"2022-11-06T19:24:22.556160","APOAPSIS":"540.750","TIME_SYSTEM":"UTC","LAUNCH_DATE":"2022-08-19","RA_OF_ASC_NODE":"135.8883","TLE_LINE2":"2 53547  53.2146 135.8883 0001385  83.3144 276.8005 15.08824819 12291"},{"SEMIMAJOR_AXIS":"6917.903","MEAN_MOTION_DDOT":"0.0000000000000","CENTER_NAME":"EARTH","BSTAR":"-0.00006096700000","REV_AT_EPOCH":"1229","OBJECT_ID":"2022-101X","MEAN_MOTION":"15.08832619","GP_ID":"217062699","MEAN_ANOMALY":"281.3425","COUNTRY_CODE":"US","FILE":"3647190","TLE_LINE1":"1 53548U 22101X   22310.79387220 -.00001258  00000-0 -60967-4 0  9997","REF_FRAME":"TEME","OBJECT_NAME":"STARLINK-4513","APOAPSIS":"540.721","TIME_SYSTEM":"UTC","LAUNCH_DATE":"2022-08-19","TLE_LINE2":"2 53548  53.2179 135.9446 0001377  78.7722 281.3425 15.08832619 12299","RA_OF_ASC_NODE":"135.9446","OBJECT_TYPE":"PAYLOAD","ECCENTRICITY":"0.00013770","NORAD_CAT_ID":"53548","ELEMENT_SET_NO":"999","RCS_SIZE":"LARGE","PERIOD":"95.438","EPOCH":"2022-11-06T19:03:10.558080","MEAN_ELEMENT_THEORY":"SGP4","PERIAPSIS":"538.815","CLASSIFICATION_TYPE":"U","ARG_OF_PERICENTER":"78.7722","INCLINATION":"53.2179","EPHEMERIS_TYPE":"0","SITE":"AFETR","DECAY_DATE":null,"MEAN_MOTION_DOT":"-0.00001258"},{"INCLINATION":"53.2158","EPHEMERIS_TYPE":"0","SITE":"AFETR","DECAY_DATE":null,"MEAN_MOTION_DOT":"-0.00000188","MEAN_ELEMENT_THEORY":"SGP4","PERIAPSIS":"538.746","CLASSIFICATION_TYPE":"U","ARG_OF_PERICENTER":"84.1480","OBJECT_TYPE":"PAYLOAD","NORAD_CAT_ID":"53549","ELEMENT_SET_NO":"999","ECCENTRICITY":"0.00014680","RCS_SIZE":"LARGE","EPOCH":"2022-11-06T19:13:45.338880","PERIOD":"95.438","APOAPSIS":"540.777","TIME_SYSTEM":"UTC","LAUNCH_DATE":"2022-08-19","TLE_LINE2":"2 53549  53.2158 135.9215 0001468  84.1480 275.9680 15.08834794 12292","RA_OF_ASC_NODE":"135.9215","FILE":"3647162","TLE_LINE1":"1 53549U 22101Y   22310.80121920 -.00000188  00000-0  62588-5 0  9995","REF_FRAME":"TEME","OBJECT_NAME":"STARLINK-4516","MEAN_ANOMALY":"275.9680","COUNTRY_CODE":"US","MEAN_MOTION":"15.08834794","GP_ID":"217062195","SEMIMAJOR_AXIS":"6917.896","MEAN_MOTION_DDOT":"0.0000000000000","CENTER_NAME":"EARTH","REV_AT_EPOCH":"1229","BSTAR":"0.00000625880000","OBJECT_ID":"2022-101Y"},{"DECAY_DATE":null,"MEAN_MOTION_DOT":"-0.00000172","EPHEMERIS_TYPE":"0","INCLINATION":"53.2184","SITE":"AFETR","PERIAPSIS":"538.723","ARG_OF_PERICENTER":"67.9985","CLASSIFICATION_TYPE":"U","MEAN_ELEMENT_THEORY":"SGP4","RCS_SIZE":"LARGE","PERIOD":"95.437","EPOCH":"2022-11-06T18:57:51.984000","OBJECT_TYPE":"PAYLOAD","ECCENTRICITY":"0.00014590","ELEMENT_SET_NO":"999","NORAD_CAT_ID":"53550","LAUNCH_DATE":"2022-08-19","RA_OF_ASC_NODE":"135.9594","TLE_LINE2":"2 53550  53.2184 135.9594 0001459  67.9985 292.1163 15.08844154 12290","APOAPSIS":"540.742","TIME_SYSTEM":"UTC","OBJECT_NAME":"STARLINK-4518","TLE_LINE1":"1 53550U 22101Z   22310.79018500 -.00000172  00000-0  72672-5 0  9992","FILE":"3647162","REF_FRAME":"TEME","COUNTRY_CODE":"US","MEAN_ANOMALY":"292.1163","GP_ID":"217062194","MEAN_MOTION":"15.08844154","CENTER_NAME":"EARTH","OBJECT_ID":"2022-101Z","REV_AT_EPOCH":"1229","BSTAR":"0.00000726720000","MEAN_MOTION_DDOT":"0.0000000000000","SEMIMAJOR_AXIS":"6917.868"},{"MEAN_ELEMENT_THEORY":"SGP4","PERIAPSIS":"538.797","CLASSIFICATION_TYPE":"U","ARG_OF_PERICENTER":"78.8303","INCLINATION":"53.2148","EPHEMERIS_TYPE":"0","SITE":"AFETR","DECAY_DATE":null,"MEAN_MOTION_DOT":"-0.00002729","APOAPSIS":"540.716","TIME_SYSTEM":"UTC","LAUNCH_DATE":"2022-08-19","TLE_LINE2":"2 53551  53.2148 139.8034 0001387  78.8303 281.2845 15.08836401 12829","RA_OF_ASC_NODE":"139.8034","OBJECT_TYPE":"PAYLOAD","ELEMENT_SET_NO":"999","NORAD_CAT_ID":"53551","ECCENTRICITY":"0.00013870","RCS_SIZE":"LARGE","PERIOD":"95.438","EPOCH":"2022-11-05T22:28:27.078528","MEAN_ANOMALY":"281.2845","COUNTRY_CODE":"US","FILE":"3647066","TLE_LINE1":"1 53551U 22101AA  22309.93642452 -.00002729  00000-0 -15347-3 0  9991","REF_FRAME":"TEME","OBJECT_NAME":"STARLINK-4514","SEMIMAJOR_AXIS":"6917.891","MEAN_MOTION_DDOT":"0.0000000000000","CENTER_NAME":"EARTH","BSTAR":"-0.00015347000000","REV_AT_EPOCH":"1282","OBJECT_ID":"2022-101AA","MEAN_MOTION":"15.08836401","GP_ID":"217059888"},{"CENTER_NAME":"EARTH","BSTAR":"-0.00005853800000","REV_AT_EPOCH":"1229","OBJECT_ID":"2022-101AB","MEAN_MOTION_DDOT":"0.0000000000000","SEMIMAJOR_AXIS":"6917.881","MEAN_MOTION":"15.08839820","GP_ID":"217061863","COUNTRY_CODE":"US","MEAN_ANOMALY":"286.0146","OBJECT_NAME":"STARLINK-4495","REF_FRAME":"TEME","TLE_LINE1":"1 53552U 22101AB  22310.78282955 -.00001220  00000-0 -58538-4 0  9990","FILE":"3647162","LAUNCH_DATE":"2022-08-19","TLE_LINE2":"2 53552  53.2184 135.9903 0001540  74.1016 286.0146 15.08839820 12299","RA_OF_ASC_NODE":"135.9903","APOAPSIS":"540.811","TIME_SYSTEM":"UTC","RCS_SIZE":"LARGE","EPOCH":"2022-11-06T18:47:16.473120","PERIOD":"95.438","OBJECT_TYPE":"PAYLOAD","NORAD_CAT_ID":"53552","ECCENTRICITY":"0.00015400","ELEMENT_SET_NO":"999","PERIAPSIS":"538.681","CLASSIFICATION_TYPE":"U","ARG_OF_PERICENTER":"74.1016","MEAN_ELEMENT_THEORY":"SGP4","DECAY_DATE":null,"MEAN_MOTION_DOT":"-0.00001220","INCLINATION":"53.2184","EPHEMERIS_TYPE":"0","SITE":"AFETR"},{"COUNTRY_CODE":"US","MEAN_ANOMALY":"282.0612","OBJECT_NAME":"STARLINK-4501","TLE_LINE1":"1 53553U 22101AC  22310.78746202 -.00003902  00000-0 -22712-3 0  9994","FILE":"3647162","REF_FRAME":"TEME","OBJECT_ID":"2022-101AC","REV_AT_EPOCH":"1229","BSTAR":"-0.00022712000000","CENTER_NAME":"EARTH","MEAN_MOTION_DDOT":"0.0000000000000","SEMIMAJOR_AXIS":"6917.839","GP_ID":"217062190","MEAN_MOTION":"15.08853519","ARG_OF_PERICENTER":"78.0533","CLASSIFICATION_TYPE":"U","PERIAPSIS":"538.757","MEAN_ELEMENT_THEORY":"SGP4","MEAN_MOTION_DOT":"-0.00003902","DECAY_DATE":null,"SITE":"AFETR","EPHEMERIS_TYPE":"0","INCLINATION":"53.2169","RA_OF_ASC_NODE":"135.9693","TLE_LINE2":"2 53553  53.2169 135.9693 0001369  78.0533 282.0612 15.08853519 12290","LAUNCH_DATE":"2022-08-19","TIME_SYSTEM":"UTC","APOAPSIS":"540.651","PERIOD":"95.437","EPOCH":"2022-11-06T18:53:56.718528","RCS_SIZE":"LARGE","ECCENTRICITY":"0.00013690","NORAD_CAT_ID":"53553","ELEMENT_SET_NO":"999","OBJECT_TYPE":"PAYLOAD"},{"SITE":"AFETR","INCLINATION":"53.2212","EPHEMERIS_TYPE":"0","MEAN_MOTION_DOT":"-0.00002520","DECAY_DATE":null,"MEAN_ELEMENT_THEORY":"SGP4","CLASSIFICATION_TYPE":"U","ARG_OF_PERICENTER":"63.0274","PERIAPSIS":"539.058","ELEMENT_SET_NO":"999","NORAD_CAT_ID":"53554","ECCENTRICITY":"0.00010210","OBJECT_TYPE":"PAYLOAD","PERIOD":"95.438","EPOCH":"2022-11-06T05:53:35.558016","RCS_SIZE":"LARGE","TIME_SYSTEM":"UTC","APOAPSIS":"540.471","TLE_LINE2":"2 53554  53.2212 138.4041 0001021  63.0274 297.0823 15.08833740 12212","RA_OF_ASC_NODE":"138.4041","LAUNCH_DATE":"2022-08-19","TLE_LINE1":"1 53554U 22101AD  22310.24555044 -.00002520  00000-0 -14032-3 0  9999","REF_FRAME":"TEME","FILE":"3647066","OBJECT_NAME":"STARLINK-4506","MEAN_ANOMALY":"297.0823","COUNTRY_CODE":"US","MEAN_MOTION":"15.08833740","GP_ID":"217059096","MEAN_MOTION_DDOT":"0.0000000000000","SEMIMAJOR_AXIS":"6917.900","REV_AT_EPOCH":"1221","BSTAR":"-0.00014032000000","OBJECT_ID":"2022-101AD","CENTER_NAME":"EARTH"},{"OBJECT_NAME":"STARLINK-4504","TLE_LINE1":"1 53555U 22101AE  22310.52153776 -.00000897  00000-0 -38277-4 0  9990","FILE":"3647066","REF_FRAME":"TEME","COUNTRY_CODE":"US","MEAN_ANOMALY":"284.1233","MEAN_MOTION":"15.08844604","GP_ID":"217059616","BSTAR":"-0.00003827700000","REV_AT_EPOCH":"1291","OBJECT_ID":"2022-101AE","CENTER_NAME":"EARTH","MEAN_MOTION_DDOT":"0.0000000000000","SEMIMAJOR_AXIS":"6917.866","MEAN_MOTION_DOT":"-0.00000897","DECAY_DATE":null,"SITE":"AFETR","INCLINATION":"53.2174","EPHEMERIS_TYPE":"0","CLASSIFICATION_TYPE":"U","ARG_OF_PERICENTER":"75.9920","PERIAPSIS":"538.732","MEAN_ELEMENT_THEORY":"SGP4","EPOCH":"2022-11-06T12:31:00.862464","PERIOD":"95.437","RCS_SIZE":"LARGE","NORAD_CAT_ID":"53555","ECCENTRICITY":"0.00014440","ELEMENT_SET_NO":"999","OBJECT_TYPE":"PAYLOAD","TLE_LINE2":"2 53555  53.2174 137.1624 0001444  75.9920 284.1233 15.08844604 12912","RA_OF_ASC_NODE":"137.1624","LAUNCH_DATE":"2022-08-19","TIME_SYSTEM":"UTC","APOAPSIS":"540.730"}];
